start=new Date('2022-11-28T00:00:00.000Z').valueOf();
sats=[{"ECCENTRICITY":"0.00019450","MEAN_MOTION":"15.08830847","LAUNCH_DATE":"2022-05-06","INCLINATION":"53.2197","TLE_LINE2":"2 52451  53.2197  47.4248 0001945  39.9428 320.1707 15.08830847 31243","MEAN_MOTION_DOT":"-0.00001223","BSTAR":"-0.00005875100000","PERIAPSIS":"538.428","MEAN_ANOMALY":"320.1707","ELEMENT_SET_NO":"999","EPHEMERIS_TYPE":"0","CLASSIFICATION_TYPE":"U","OBJECT_ID":"2022-049A","ARG_OF_PERICENTER":"39.9428","RCS_SIZE":"LARGE","REF_FRAME":"TEME","OBJECT_NAME":"STARLINK-3870","CENTER_NAME":"EARTH","OBJECT_TYPE":"PAYLOAD","REV_AT_EPOCH":"3124","MEAN_ELEMENT_THEORY":"SGP4","APOAPSIS":"541.119","TIME_SYSTEM":"UTC","EPOCH":"2022-11-27T15:03:56.912256","RA_OF_ASC_NODE":"47.4248","COUNTRY_CODE":"US","GP_ID":"218992237","TLE_LINE1":"1 52451U 22049A   22331.62774204 -.00001223  00000-0 -58751-4 0  9997","NORAD_CAT_ID":"52451","SEMIMAJOR_AXIS":"6917.908","SITE":"AFETR","DECAY_DATE":null,"MEAN_MOTION_DDOT":"0.0000000000000","FILE":"3671921","PERIOD":"95.438"},{"PERIOD":"95.439","FILE":"3671921","TLE_LINE1":"1 52452U 22049B   22331.65077769 -.00002996  00000-0 -17030-3 0  9995","NORAD_CAT_ID":"52452","SEMIMAJOR_AXIS":"6917.935","SITE":"AFETR","DECAY_DATE":null,"MEAN_MOTION_DDOT":"0.0000000000000","RA_OF_ASC_NODE":"47.3332","COUNTRY_CODE":"US","GP_ID":"218992487","OBJECT_TYPE":"PAYLOAD","CENTER_NAME":"EARTH","APOAPSIS":"541.176","MEAN_ELEMENT_THEORY":"SGP4","REV_AT_EPOCH":"3124","EPOCH":"2022-11-27T15:37:07.192416","TIME_SYSTEM":"UTC","RCS_SIZE":"LARGE","ARG_OF_PERICENTER":"42.5008","REF_FRAME":"TEME","OBJECT_NAME":"STARLINK-3909","MEAN_ANOMALY":"317.6138","ELEMENT_SET_NO":"999","OBJECT_ID":"2022-049B","CLASSIFICATION_TYPE":"U","EPHEMERIS_TYPE":"0","PERIAPSIS":"538.424","MEAN_MOTION":"15.08821994","ECCENTRICITY":"0.00019890","INCLINATION":"53.2186","LAUNCH_DATE":"2022-05-06","MEAN_MOTION_DOT":"-0.00002996","TLE_LINE2":"2 52452  53.2186  47.3332 0001989  42.5008 317.6138 15.08821994 31249","BSTAR":"-0.00017030000000"},{"ARG_OF_PERICENTER":"59.6961","RCS_SIZE":"LARGE","OBJECT_NAME":"STARLINK-3872","REF_FRAME":"TEME","MEAN_ANOMALY":"300.4252","CLASSIFICATION_TYPE":"U","EPHEMERIS_TYPE":"0","OBJECT_ID":"2022-049C","ELEMENT_SET_NO":"999","PERIAPSIS":"538.214","LAUNCH_DATE":"2022-05-06","INCLINATION":"53.2212","ECCENTRICITY":"0.00022340","MEAN_MOTION":"15.08835544","BSTAR":"-0.00007902800000","MEAN_MOTION_DOT":"-0.00001546","TLE_LINE2":"2 52453  53.2212  47.4627 0002234  59.6961 300.4252 15.08835544 31242","PERIOD":"95.438","FILE":"3671921","NORAD_CAT_ID":"52453","TLE_LINE1":"1 52453U 22049C   22331.62038006 -.00001546  00000-0 -79028-4 0  9990","SITE":"AFETR","DECAY_DATE":null,"MEAN_MOTION_DDOT":"0.0000000000000","SEMIMAJOR_AXIS":"6917.894","GP_ID":"218991735","COUNTRY_CODE":"US","RA_OF_ASC_NODE":"47.4627","CENTER_NAME":"EARTH","OBJECT_TYPE":"PAYLOAD","TIME_SYSTEM":"UTC","EPOCH":"2022-11-27T14:53:20.837184","REV_AT_EPOCH":"3124","MEAN_ELEMENT_THEORY":"SGP4","APOAPSIS":"541.304"},{"LAUNCH_DATE":"2022-05-06","INCLINATION":"53.2193","ECCENTRICITY":"0.00016980","MEAN_MOTION":"15.08837382","BSTAR":"-0.00010724000000","TLE_LINE2":"2 52454  53.2193  47.4575 0001698  44.3389 315.7739 15.08837382 31242","MEAN_MOTION_DOT":"-0.00001994","PERIAPSIS":"538.579","MEAN_ANOMALY":"315.7739","EPHEMERIS_TYPE":"0","CLASSIFICATION_TYPE":"U","OBJECT_ID":"2022-049D","ELEMENT_SET_NO":"999","ARG_OF_PERICENTER":"44.3389","RCS_SIZE":"LARGE","OBJECT_NAME":"STARLINK-3888","REF_FRAME":"TEME","CENTER_NAME":"EARTH","OBJECT_TYPE":"PAYLOAD","EPOCH":"2022-11-27T14:58:38.563680","TIME_SYSTEM":"UTC","REV_AT_EPOCH":"3124","MEAN_ELEMENT_THEORY":"SGP4","APOAPSIS":"540.928","GP_ID":"218991487","COUNTRY_CODE":"US","RA_OF_ASC_NODE":"47.4575","NORAD_CAT_ID":"52454","TLE_LINE1":"1 52454U 22049D   22331.62405745 -.00001994  00000-0 -10724-3 0  9993","DECAY_DATE":null,"SITE":"AFETR","MEAN_MOTION_DDOT":"0.0000000000000","SEMIMAJOR_AXIS":"6917.888","PERIOD":"95.438","FILE":"3671921"},{"RCS_SIZE":"LARGE","ARG_OF_PERICENTER":"38.0312","OBJECT_NAME":"STARLINK-3890","REF_FRAME":"TEME","MEAN_ANOMALY":"322.0831","OBJECT_ID":"2022-049E","EPHEMERIS_TYPE":"0","CLASSIFICATION_TYPE":"U","ELEMENT_SET_NO":"999","PERIAPSIS":"538.303","INCLINATION":"53.2197","LAUNCH_DATE":"2022-05-06","MEAN_MOTION":"15.08827170","ECCENTRICITY":"0.00021420","BSTAR":"-0.00021223000000","TLE_LINE2":"2 52455  53.2197  45.9954 0002142  38.0312 322.0831 15.08827170 31453","MEAN_MOTION_DOT":"-0.00003663","FILE":"3671898","PERIOD":"95.438","NORAD_CAT_ID":"52455","TLE_LINE1":"1 52455U 22049E   22331.94885590 -.00003663  00000-0 -21223-3 0  9990","DECAY_DATE":null,"SITE":"AFETR","MEAN_MOTION_DDOT":"0.0000000000000","SEMIMAJOR_AXIS":"6917.920","COUNTRY_CODE":"US","GP_ID":"218967609","RA_OF_ASC_NODE":"45.9954","OBJECT_TYPE":"PAYLOAD","CENTER_NAME":"EARTH","TIME_SYSTEM":"UTC","EPOCH":"2022-11-27T22:46:21.149760","MEAN_ELEMENT_THEORY":"SGP4","APOAPSIS":"541.266","REV_AT_EPOCH":"3145"},{"MEAN_ANOMALY":"320.2681","ELEMENT_SET_NO":"999","CLASSIFICATION_TYPE":"U","EPHEMERIS_TYPE":"0","OBJECT_ID":"2022-049F","ARG_OF_PERICENTER":"39.8464","RCS_SIZE":"LARGE","REF_FRAME":"TEME","OBJECT_NAME":"STARLINK-3896","ECCENTRICITY":"0.00020900","MEAN_MOTION":"15.08837347","LAUNCH_DATE":"2022-05-06","INCLINATION":"53.2204","TLE_LINE2":"2 52456  53.2204  46.0148 0002090  39.8464 320.2681 15.08837347 31459","MEAN_MOTION_DOT":"0.00001155","BSTAR":"0.00009067500000","PERIAPSIS":"538.308","TLE_LINE1":"1 52456U 22049F   22331.94517539  .00001155  00000-0  90675-4 0  9996","NORAD_CAT_ID":"52456","SEMIMAJOR_AXIS":"6917.888","SITE":"AFETR","DECAY_DATE":null,"MEAN_MOTION_DDOT":"0.0000000000000","PERIOD":"95.438","FILE":"3671906","CENTER_NAME":"EARTH","OBJECT_TYPE":"PAYLOAD","REV_AT_EPOCH":"3145","APOAPSIS":"541.199","MEAN_ELEMENT_THEORY":"SGP4","TIME_SYSTEM":"UTC","EPOCH":"2022-11-27T22:41:03.153696","RA_OF_ASC_NODE":"46.0148","COUNTRY_CODE":"US","GP_ID":"218968048"},{"MEAN_ANOMALY":"319.0212","CLASSIFICATION_TYPE":"U","EPHEMERIS_TYPE":"0","OBJECT_ID":"2022-049G","ELEMENT_SET_NO":"999","ARG_OF_PERICENTER":"41.0907","RCS_SIZE":"LARGE","OBJECT_NAME":"STARLINK-3899","REF_FRAME":"TEME","LAUNCH_DATE":"2022-05-06","INCLINATION":"53.2195","ECCENTRICITY":"0.00016840","MEAN_MOTION":"15.08826543","BSTAR":"-0.00004669200000","MEAN_MOTION_DOT":"-0.00001031","TLE_LINE2":"2 52457  53.2195  47.8151 0001684  41.0907 319.0212 15.08826543 31235","PERIAPSIS":"538.622","NORAD_CAT_ID":"52457","TLE_LINE1":"1 52457U 22049G   22331.54405952 -.00001031  00000-0 -46692-4 0  9993","SITE":"AFETR","DECAY_DATE":null,"MEAN_MOTION_DDOT":"0.0000000000000","SEMIMAJOR_AXIS":"6917.922","FILE":"3671921","PERIOD":"95.438","CENTER_NAME":"EARTH","OBJECT_TYPE":"PAYLOAD","TIME_SYSTEM":"UTC","EPOCH":"2022-11-27T13:03:26.742528","REV_AT_EPOCH":"3123","MEAN_ELEMENT_THEORY":"SGP4","APOAPSIS":"540.951","GP_ID":"218991237","COUNTRY_CODE":"US","RA_OF_ASC_NODE":"47.8151"},{"COUNTRY_CODE":"US","GP_ID":"218967768","RA_OF_ASC_NODE":"46.0413","CENTER_NAME":"EARTH","OBJECT_TYPE":"PAYLOAD","TIME_SYSTEM":"UTC","EPOCH":"2022-11-27T22:30:27.585792","REV_AT_EPOCH":"3145","MEAN_ELEMENT_THEORY":"SGP4","APOAPSIS":"541.474","FILE":"3671898","PERIOD":"95.438","NORAD_CAT_ID":"52458","TLE_LINE1":"1 52458U 22049H   22331.93781928 -.00001849  00000-0 -98118-4 0  9994","DECAY_DATE":null,"SITE":"AFETR","MEAN_MOTION_DDOT":"0.0000000000000","SEMIMAJOR_AXIS":"6917.906","PERIAPSIS":"538.068","LAUNCH_DATE":"2022-05-06","INCLINATION":"53.2208","ECCENTRICITY":"0.00024620","MEAN_MOTION":"15.08831524","BSTAR":"-0.00009811800000","TLE_LINE2":"2 52458  53.2208  46.0413 0002462  33.1808 326.9338 15.08831524 31455","MEAN_MOTION_DOT":"-0.00001849","ARG_OF_PERICENTER":"33.1808","RCS_SIZE":"LARGE","OBJECT_NAME":"STARLINK-3898","REF_FRAME":"TEME","MEAN_ANOMALY":"326.9338","CLASSIFICATION_TYPE":"U","EPHEMERIS_TYPE":"0","OBJECT_ID":"2022-049H","ELEMENT_SET_NO":"999"},{"PERIOD":"95.438","FILE":"3671921","DECAY_DATE":null,"SITE":"AFETR","MEAN_MOTION_DDOT":"0.0000000000000","SEMIMAJOR_AXIS":"6917.885","NORAD_CAT_ID":"52459","TLE_LINE1":"1 52459U 22049J   22331.59185305 -.00001383  00000-0 -68779-4 0  9997","GP_ID":"218992238","COUNTRY_CODE":"US","RA_OF_ASC_NODE":"37.5839","TIME_SYSTEM":"UTC","EPOCH":"2022-11-27T14:12:16.103520","APOAPSIS":"541.208","MEAN_ELEMENT_THEORY":"SGP4","REV_AT_EPOCH":"3137","OBJECT_TYPE":"PAYLOAD","CENTER_NAME":"EARTH","OBJECT_NAME":"STARLINK-3856","REF_FRAME":"TEME","RCS_SIZE":"LARGE","ARG_OF_PERICENTER":"39.6808","OBJECT_ID":"2022-049J","EPHEMERIS_TYPE":"0","CLASSIFICATION_TYPE":"U","ELEMENT_SET_NO":"999","MEAN_ANOMALY":"320.4338","PERIAPSIS":"538.292","BSTAR":"-0.00006877900000","MEAN_MOTION_DOT":"-0.00001383","TLE_LINE2":"2 52459  53.2194  37.5839 0002108  39.6808 320.4338 15.08838550 31371","INCLINATION":"53.2194","LAUNCH_DATE":"2022-05-06","MEAN_MOTION":"15.08838550","ECCENTRICITY":"0.00021080"},{"CENTER_NAME":"EARTH","OBJECT_TYPE":"PAYLOAD","EPOCH":"2022-11-27T15:43:44.665248","TIME_SYSTEM":"UTC","REV_AT_EPOCH":"3138","MEAN_ELEMENT_THEORY":"SGP4","APOAPSIS":"541.145","COUNTRY_CODE":"US","GP_ID":"218992488","RA_OF_ASC_NODE":"37.3012","NORAD_CAT_ID":"52460","TLE_LINE1":"1 52460U 22049K   22331.65537807 -.00001261  00000-0 -61160-4 0  9996","DECAY_DATE":null,"MEAN_MOTION_DDOT":"0.0000000000000","SITE":"AFETR","SEMIMAJOR_AXIS":"6917.904","PERIOD":"95.438","FILE":"3671921","LAUNCH_DATE":"2022-05-06","INCLINATION":"53.2180","ECCENTRICITY":"0.00019890","MEAN_MOTION":"15.08832283","BSTAR":"-0.00006116000000","TLE_LINE2":"2 52460  53.2180  37.3012 0001989  35.3523 324.7601 15.08832283 31380","MEAN_MOTION_DOT":"-0.00001261","PERIAPSIS":"538.393","MEAN_ANOMALY":"324.7601","CLASSIFICATION_TYPE":"U","EPHEMERIS_TYPE":"0","OBJECT_ID":"2022-049K","ELEMENT_SET_NO":"999","ARG_OF_PERICENTER":"35.3523","RCS_SIZE":"LARGE","OBJECT_NAME":"STARLINK-3865","REF_FRAME":"TEME"}];
